[{"OBJECT_NAME":"ONEWEB-0128","OBJECT_ID":"2020-100S","EPOCH":"2026-03-09T18:28:33.746592","MEAN_MOTION":13.12442187,"ECCENTRICITY":0.0001766,"INCLINATION":87.8993,"RA_OF_ASC_NODE":10.4238,"ARG_OF_PERICENTER":91.0197,"MEAN_ANOMALY":269.1134,"EPHEMERIS_TYPE":0,"CLASSIFICATION_TYPE":"U","NORAD_CAT_ID":47274,"ELEMENT_SET_NO":999,"REV_AT_EPOCH":25170,"BSTAR":-0.00040030597,"MEAN_MOTION_DOT":-1.31e-6,"MEAN_MOTION_DDOT":0},{"OBJECT_NAME":"UNKNOWN","OBJECT_ID":"","EPOCH":"2026-03-06T15:35:58.139808","MEAN_MOTION":13.15583679,"ECCENTRICITY":0.00194869,"INCLINATION":82.5467,"RA_OF_ASC_NODE":217.4429,"ARG_OF_PERICENTER":167.5979,"MEAN_ANOMALY":192.5626,"EPHEMERIS_TYPE":0,"CLASSIFICATION_TYPE":"U","NORAD_CAT_ID":270264,"ELEMENT_SET_NO":999,"REV_AT_EPOCH":28717,"BSTAR":0.0016239036,"MEAN_MOTION_DOT":6.25e-6,"MEAN_MOTION_DDOT":0}]
